IRIDIUM 154             
1 43574U 18061F   26183.16206481  .00000084  00000+0  23048-4 0  9999
2 43574  86.3949  50.5445 0002216  89.3531 270.7919 14.34218240415551
IRIDIUM 163             
1 43575U 18061G   26183.14303784  .00000037  00000+0  61800-5 0  9999
2 43575  86.3945  50.4672 0002173  84.3083 275.8361 14.34217802415525
IRIDIUM 156             
1 43576U 18061H   26182.62928716  .00000171  00000+0  54079-4 0  9998
2 43576  86.3944  50.6893 0001965  87.1888 272.9533 14.34220092415449
IRIDIUM 164             
1 43577U 18061J   26183.16840824  .00000011  00000+0 -30548-5 0  9992
2 43577  86.3946  50.5042 0002150  89.8718 270.2724 14.34217583415562
IRIDIUM 159             
1 43578U 18061K   26183.13669556  .00000039  00000+0  67032-5 0  9998
2 43578  86.3946  50.4542 0002217  84.7374 275.4075 14.34217767415529
IRIDIUM 180             
1 43922U 19002A   26183.20595997  .00000005  00000+0 -53953-5 0  9993
2 43922  86.3974 347.3183 0002136  89.7245 270.4196 14.34217523391144
IRIDIUM 176             
1 43923U 19002B   26183.17987839  .00000870  00000+0  13416-3 0  9997
2 43923  86.6099 347.2703 0002383  88.3279 271.8212 14.72234666401458
IRIDIUM 168             
1 43924U 19002C   26183.19961253  .00000197  00000+0  63156-4 0  9991
2 43924  86.3982 347.3984 0002231  89.9751 270.1701 14.34218584391129
IRIDIUM 173             
1 43925U 19002D   26183.18693235 -.00000005  00000+0 -87868-5 0  9990
2 43925  86.3975 347.2923 0002045  89.5600 270.5831 14.34217423391103
IRIDIUM 169             
1 43926U 19002E   26182.99806241  .00000302  00000+0  92087-4 0  9998
2 43926  86.4218  18.9997 0001636  88.8045 271.3341 14.38610546392358
IRIDIUM 172             
1 43927U 19002F   26182.97128424  .00000061  00000+0  14686-4 0  9998
2 43927  86.3978 347.3902 0002222  89.4451 270.7000 14.34217495391082
IRIDIUM 175             
1 43928U 19002G   26183.31713578  .00000373  00000+0  10415-3 0  9999
2 43928  86.4519 284.1967 0004328 141.5257 218.6253 14.43621349401166
IRIDIUM 171             
1 43929U 19002H   26183.16156192  .00000020  00000+0 -47765-7 0  9998
2 43929  86.3986 347.6183 0002151  94.1501 265.9940 14.34217649391100
IRIDIUM 170             
1 43930U 19002J   26183.18605344  .00000862  00000+0  13285-3 0  9999
2 43930  86.6097 347.2700 0002432  84.8461 275.3034 14.72235139401468
IRIDIUM 167             
1 43931U 19002K   26183.15521848  .00000057  00000+0  13328-4 0  9998
2 43931  86.3978 347.3357 0002057  98.2469 261.8960 14.34218005391101
IRIDIUM 181             
1 56726U 23068S   26183.15092681  .00000342  00000+0  95510-4 0  9999
2 56726  86.4484  50.5342 0002437  86.2138 273.9341 14.43314274164592
IRIDIUM 177             
1 56727U 23068T   26183.12809433  .00001167  00000+0  15070-3 0  9996
2 56727  86.1976 321.6958 0002328  89.6116 270.5372 14.80046012168575
IRIDIUM 174             
1 56728U 23068U   26183.17368438  .00000918  00000+0  14166-3 0  9995
2 56728  86.6106 347.4240 0002260  80.4401 279.7072 14.72243217168224
IRIDIUM 178             
1 56729U 23068V   26183.25227976  .00001144  00000+0  14776-3 0  9995
2 56729  86.6532  19.0630 0002487  85.4914 274.6592 14.80047592168596
IRIDIUM 179             
1 56730U 23068W   26183.11176170  .00001035  00000+0  13333-3 0  9998
2 56730  86.6765  28.1459 0002435  87.7658 272.3842 14.80064129168575
