OBJECT_NAME,OBJECT_ID,EPOCH,MEAN_MOTION,ECCENTRICITY,INCLINATION,RA_OF_ASC_NODE,ARG_OF_PERICENTER,MEAN_ANOMALY,EPHEMERIS_TYPE,CLASSIFICATION_TYPE,NORAD_CAT_ID,ELEMENT_SET_NO,REV_AT_EPOCH,BSTAR,MEAN_MOTION_DOT,MEAN_MOTION_DDOT
IRIDIUM 154,2018-061F,2026-07-02T03:53:22.399584,14.34218240,.00022161,86.3949,50.5445,89.3531,270.7919,0,U,43574,999,41555,.23048008E-4,.84E-6,0
IRIDIUM 163,2018-061G,2026-07-02T03:25:58.469376,14.34217802,.00021736,86.3945,50.4672,84.3083,275.8361,0,U,43575,999,41552,.6179995E-5,.37E-6,0
IRIDIUM 156,2018-061H,2026-07-01T15:06:10.410624,14.34220092,.00019653,86.3944,50.6893,87.1888,272.9533,0,U,43576,999,41544,.54078561E-4,.171E-5,0
IRIDIUM 164,2018-061J,2026-07-02T04:02:30.471936,14.34217583,.00021501,86.3946,50.5042,89.8718,270.2724,0,U,43577,999,41556,-.3054773E-5,.11E-6,0
IRIDIUM 159,2018-061K,2026-07-02T03:16:50.496384,14.34217767,.00022175,86.3946,50.4542,84.7374,275.4075,0,U,43578,999,41552,.670323E-5,.39E-6,0
IRIDIUM 180,2019-002A,2026-07-02T04:56:34.941408,14.34217523,.00021363,86.3974,347.3183,89.7245,270.4196,0,U,43922,999,39114,-.5395323E-5,.5E-7,0
IRIDIUM 176,2019-002B,2026-07-02T04:19:01.492896,14.72234666,.00023836,86.6099,347.2703,88.3279,271.8212,0,U,43923,999,40145,.13416385E-3,.87E-5,0
IRIDIUM 168,2019-002C,2026-07-02T04:47:26.522592,14.34218584,.00022317,86.3982,347.3984,89.9751,270.1701,0,U,43924,999,39112,.63156212E-4,.197E-5,0
IRIDIUM 173,2019-002D,2026-07-02T04:29:10.955040,14.34217423,.0002045,86.3975,347.2923,89.5600,270.5831,0,U,43925,999,39110,-.8786758E-5,-.5E-7,0
IRIDIUM 169,2019-002E,2026-07-01T23:57:12.592224,14.38610546,.00016365,86.4218,18.9997,88.8045,271.3341,0,U,43926,999,39235,.92086804E-4,.302E-5,0
IRIDIUM 172,2019-002F,2026-07-01T23:18:38.958336,14.34217495,.00022227,86.3978,347.3902,89.4451,270.7000,0,U,43927,999,39108,.14685865E-4,.61E-6,0
IRIDIUM 175,2019-002G,2026-07-02T07:36:40.531392,14.43621349,.0004328,86.4519,284.1967,141.5257,218.6253,0,U,43928,999,40116,.10414877E-3,.373E-5,0
IRIDIUM 171,2019-002H,2026-07-02T03:52:38.949888,14.34217649,.00021513,86.3986,347.6183,94.1501,265.9940,0,U,43929,999,39110,-.47765E-7,.2E-6,0
IRIDIUM 170,2019-002J,2026-07-02T04:27:55.017216,14.72235139,.0002432,86.6097,347.2700,84.8461,275.3034,0,U,43930,999,40146,.13284959E-3,.862E-5,0
IRIDIUM 167,2019-002K,2026-07-02T03:43:30.876672,14.34218005,.00020572,86.3978,347.3357,98.2469,261.8960,0,U,43931,999,39110,.13327551E-4,.57E-6,0
IRIDIUM 181,2023-068S,2026-07-02T03:37:20.076384,14.43314274,.00024377,86.4484,50.5342,86.2138,273.9341,0,U,56726,999,16459,.95509739E-4,.342E-5,0
IRIDIUM 177,2023-068T,2026-07-02T03:04:27.350112,14.80046012,.00023285,86.1976,321.6958,89.6116,270.5372,0,U,56727,999,16857,.15070332E-3,.1167E-4,0
IRIDIUM 174,2023-068U,2026-07-02T04:10:06.330432,14.72243217,.00022601,86.6106,347.4240,80.4401,279.7072,0,U,56728,999,16822,.14166327E-3,.918E-5,0
IRIDIUM 178,2023-068V,2026-07-02T06:03:16.971264,14.80047592,.00024876,86.6532,19.0630,85.4914,274.6592,0,U,56729,999,16859,.14776432E-3,.1144E-4,0
IRIDIUM 179,2023-068W,2026-07-02T02:40:56.210880,14.80064129,.00024353,86.6765,28.1459,87.7658,272.3842,0,U,56730,999,16857,.13333304E-3,.1035E-4,0
